OBJECT_NAME,OBJECT_ID,EPOCH,MEAN_MOTION,ECCENTRICITY,INCLINATION,RA_OF_ASC_NODE,ARG_OF_PERICENTER,MEAN_ANOMALY,EPHEMERIS_TYPE,CLASSIFICATION_TYPE,NORAD_CAT_ID,ELEMENT_SET_NO,REV_AT_EPOCH,BSTAR,MEAN_MOTION_DOT,MEAN_MOTION_DDOT
NETSAT-3,2020-068V,2026-06-11T13:15:26.280000,15.42483769,.0005016,97.8652,168.5644,21.9125,338.2335,0,U,46505,999,31481,.40759E-3,.17585E-3,0
NETSAT-1,2020-068W,2026-06-11T12:39:53.739648,15.34510423,.0005692,97.8744,162.9354,48.6631,311.5100,0,U,46506,999,31443,.35417E-3,.11763E-3,0
NETSAT-2,2020-068X,2026-06-11T06:35:18.744000,15.45743313,.0004198,97.8620,169.9134,43.2285,316.9291,0,U,46507,999,31482,.36601E-3,.17621E-3,0
TIANQI-6,2020-076D,2026-06-11T04:13:53.782752,15.07142291,.0009293,34.9988,85.3527,119.3045,240.8594,0,U,46810,999,30767,.21002E-3,.3197E-4,0
KSM1-C,2020-081B,2026-06-11T19:07:43.188960,15.26650716,.0002264,36.8942,92.2164,220.7041,139.3539,0,U,46906,999,30834,.33829E-3,.8994E-4,0
KSM1-D,2020-081C,2026-06-11T20:34:11.531424,15.24646298,.0004725,36.8945,100.7520,232.0084,128.0239,0,U,46907,999,30828,.32341E-3,.8086E-4,0
KSM1-A,2020-081H,2026-06-11T19:08:22.644384,15.25875471,.000477,36.8953,94.5671,272.3242,87.6961,0,U,46912,999,30835,.3422E-3,.8888E-4,0
R2,2020-081J,2026-06-11T02:19:34.388256,15.25346310,.00088211,36.8974,98.8318,239.1318,120.8563,0,U,46913,999,31105,.28415469E-3,.7249E-4,0
KSM1-B,2020-081K,2026-06-11T06:29:15.381024,15.24427698,.0006795,36.9004,104.9538,239.2757,120.7322,0,U,46914,999,31128,.3173E-3,.7881E-4,0
GONETS-M 20,2020-091A,2026-06-11T20:30:06.751584,12.42893573,.0020964,82.5038,305.7518,189.4786,170.5901,0,U,47227,999,25041,.10621E-3,.25E-6,0
GONETS-M 21,2020-091B,2026-06-11T19:52:26.200992,12.42886864,.0014519,82.4963,304.4784,202.6917,157.3523,0,U,47228,999,25040,.44518E-3,.72E-6,0
GONETS-M 22,2020-091C,2026-06-11T21:09:38.797056,12.42892928,.002189,82.5021,305.3412,184.8065,175.2808,0,U,47229,999,25036,.53327E-3,.84E-6,0
CUBEL,2021-006AM,2026-06-11T16:59:13.426656,15.41027126,.0006424,97.2333,213.3444,178.6372,181.4894,0,U,47448,999,29891,.22377E-3,.9158E-4,0
ARKTIKA-M 1,2021-016A,2026-06-09T12:22:37.726752,2.00625436,.7285674,63.2417,58.7595,269.8905,14.6803,0,U,47719,999,3863,0,-.149E-5,0
STARLINK-2342,2021-021Z,2026-06-11T20:00:01.999008,15.79534733,.0001647,53.1542,174.8882,79.0019,109.3428,0,U,47883,999,598,.43947E-3,.81677E-3,0
GRUS-1B,2021-022C,2026-06-11T20:04:28.975008,14.98988635,.0016122,97.5418,46.2112,348.1921,11.8922,0,U,47934,999,28509,.14634E-3,.1719E-4,0
UNISAT-7,2021-022P,2026-06-11T16:51:58.865760,15.40320482,.0011216,97.3903,67.5704,94.4335,265.8193,0,U,47945,999,28901,.33041E-3,.13272E-3,0
GLOBAL-9,2021-023G,2026-06-11T18:18:47.164032,15.46398910,.0005074,44.9819,281.0096,290.6746,69.3600,0,U,47971,999,29410,.38753E-3,.19291E-3,0
AII-BRAVO,2021-034C,2026-06-11T15:07:44.043168,15.03437496,.0004602,97.5629,217.6662,284.7940,75.2775,0,U,48270,999,27878,.3168E-3,.4253E-4,0
TYVAK-182A,2021-034D,2026-06-11T16:23:44.705184,15.06120143,.000559,97.5734,221.6962,8.4402,351.6918,0,U,48271,999,27900,.29013E-3,.4182E-4,0
CSS (TIANHE),2021-035A,2026-06-11T12:54:26.829792,15.60566891,.0008209,41.4693,356.3768,31.5834,328.5496,0,U,48274,999,29228,.19807E-3,.16554E-3,0
TYVAK-0130,2021-041BF,2026-06-11T00:37:18.267168,15.27487443,.0010736,52.9974,54.6973,143.6361,216.5368,0,U,48606,999,27944,.2494697E-3,.6461E-4,0
HAIYANG-2D,2021-043A,2026-06-11T20:53:20.179680,13.83375798,.0011401,65.9995,317.9371,269.7275,90.2487,0,U,48621,999,25581,.47179E-4,-.29E-6,0
2021-050D,2021-050D,2026-06-11T21:12:11.177280,15.23275095,.0004028,97.3338,239.0401,288.5320,71.5479,0,U,48843,999,27815,.17381E-3,.4051E-4,0
TYVAK-0173,2021-059P,2026-06-11T19:05:53.602656,14.81872977,.0010531,96.0086,240.4925,55.7012,304.5201,0,U,48892,999,26744,.18965E-3,.1469E-4,0
MANDRAKE 2 ABLE,2021-059AE,2026-06-11T19:58:45.651648,15.54776018,.000491,97.7036,352.2097,25.3973,334.7521,0,U,48907,999,27629,.30509E-3,.20211E-3,0
MANDRAKE 2 BAKER,2021-059AF,2026-06-11T12:33:08.584992,15.59276098,.0003425,97.7007,354.7092,28.3705,331.7736,0,U,48908,999,27641,.33473E-3,.2624E-3,0
PACE-1,2021-059AG,2026-06-11T12:22:05.871072,15.78887858,.0000684,97.6761,0.0210,308.1771,51.9434,0,U,48909,999,27690,.47302E-3,.83703E-3,0
YAM-3,2021-059AN,2026-06-11T19:59:28.921632,15.48437127,.0005491,97.6991,349.4393,28.6937,331.4613,0,U,48915,999,27616,.20414E-3,.10738E-3,0
