NETSAT-3                
1 46505U 20068V   26162.55238750  .00017585  00000+0  40759-3 0  9991
2 46505  97.8652 168.5644 0005016  21.9125 338.2335 15.42483769314818
NETSAT-1                
1 46506U 20068W   26162.52770532  .00011763  00000+0  35417-3 0  9995
2 46506  97.8744 162.9354 0005692  48.6631 311.5100 15.34510423314436
NETSAT-2                
1 46507U 20068X   26162.27452250  .00017621  00000+0  36601-3 0  9997
2 46507  97.8620 169.9134 0004198  43.2285 316.9291 15.45743313314820
TIANQI-6                
1 46810U 20076D   26162.17631693  .00003197  00000+0  21002-3 0  9994
2 46810  34.9988  85.3527 0009293 119.3045 240.8594 15.07142291307675
KSM1-C                  
1 46906U 20081B   26162.79702765  .00008994  00000+0  33829-3 0  9993
2 46906  36.8942  92.2164 0002264 220.7041 139.3539 15.26650716308343
KSM1-D                  
1 46907U 20081C   26162.85707791  .00008086  00000+0  32341-3 0  9995
2 46907  36.8945 100.7520 0004725 232.0084 128.0239 15.24646298308288
KSM1-A                  
1 46912U 20081H   26162.79748431  .00008888  00000+0  34220-3 0  9998
2 46912  36.8953  94.5671 0004770 272.3242  87.6961 15.25875471308351
R2                      
1 46913U 20081J   26162.09692579  .00007249  00000+0  28415-3 0  9992
2 46913  36.8974  98.8318 0008821 239.1318 120.8563 15.25346310311050
KSM1-B                  
1 46914U 20081K   26162.27031691  .00007881  00000+0  31730-3 0  9991
2 46914  36.9004 104.9538 0006795 239.2757 120.7322 15.24427698311280
GONETS-M 20             
1 47227U 20091A   26162.85424481  .00000025  00000+0  10621-3 0  9996
2 47227  82.5038 305.7518 0020964 189.4786 170.5901 12.42893573250412
GONETS-M 21             
1 47228U 20091B   26162.82808103  .00000072  00000+0  44518-3 0  9995
2 47228  82.4963 304.4784 0014519 202.6917 157.3523 12.42886864250400
GONETS-M 22             
1 47229U 20091C   26162.88169904  .00000084  00000+0  53327-3 0  9992
2 47229  82.5021 305.3412 0021890 184.8065 175.2808 12.42892928250368
CUBEL                   
1 47448U 21006AM  26162.70779429  .00009158  00000+0  22377-3 0  9994
2 47448  97.2333 213.3444 0006424 178.6372 181.4894 15.41027126298910
ARKTIKA-M 1             
1 47719U 21016A   26160.51571443 -.00000149  00000+0  00000+0 0  9996
2 47719  63.2417  58.7595 7285674 269.8905  14.6803  2.00625436 38630
STARLINK-2342           
1 47883U 21021Z   26162.83335647  .00081677  00000+0  43947-3 0  9990
2 47883  53.1542 174.8882 0001647  79.0019 109.3428 15.79534733  5980
GRUS-1B                 
1 47934U 21022C   26162.83644647  .00001719  00000+0  14634-3 0  9991
2 47934  97.5418  46.2112 0016122 348.1921  11.8922 14.98988635285097
UNISAT-7                
1 47945U 21022P   26162.70276465  .00013272  00000+0  33041-3 0  9998
2 47945  97.3903  67.5704 0011216  94.4335 265.8193 15.40320482289013
GLOBAL-9                
1 47971U 21023G   26162.76304588  .00019291  00000+0  38753-3 0  9994
2 47971  44.9819 281.0096 0005074 290.6746  69.3600 15.46398910294107
AII-BRAVO               
1 48270U 21034C   26162.63037087  .00004253  00000+0  31680-3 0  9996
2 48270  97.5629 217.6662 0004602 284.7940  75.2775 15.03437496278784
TYVAK-182A              
1 48271U 21034D   26162.68315631  .00004182  00000+0  29013-3 0  9994
2 48271  97.5734 221.6962 0005590   8.4402 351.6918 15.06120143279008
CSS (TIANHE)            
1 48274U 21035A   26162.53781053  .00016554  00000+0  19807-3 0  9993
2 48274  41.4693 356.3768 0008209  31.5834 328.5496 15.60566891292282
TYVAK-0130              
1 48606U 21041BF  26162.02590587  .00006461  00000+0  24947-3 0  9990
2 48606  52.9974  54.6973 0010736 143.6361 216.5368 15.27487443279449
HAIYANG-2D              
1 48621U 21043A   26162.87037245 -.00000029  00000+0  47179-4 0  9997
2 48621  65.9995 317.9371 0011401 269.7275  90.2487 13.83375798255817
2021-050D               
1 48843U 21050D   26162.88346270  .00004051  00000+0  17381-3 0  9992
2 48843  97.3338 239.0401 0004028 288.5320  71.5479 15.23275095278158
TYVAK-0173              
1 48892U 21059P   26162.79575929  .00001469  00000+0  18965-3 0  9999
2 48892  96.0086 240.4925 0010531  55.7012 304.5201 14.81872977267440
MANDRAKE 2 ABLE         
1 48907U 21059AE  26162.83247282  .00020211  00000+0  30509-3 0  9993
2 48907  97.7036 352.2097 0004910  25.3973 334.7521 15.54776018276298
MANDRAKE 2 BAKER        
1 48908U 21059AF  26162.52301603  .00026240  00000+0  33473-3 0  9999
2 48908  97.7007 354.7092 0003425  28.3705 331.7736 15.59276098276412
PACE-1                  
1 48909U 21059AG  26162.51534573  .00083703  00000+0  47302-3 0  9996
2 48909  97.6761   0.0210 0000684 308.1771  51.9434 15.78887858276901
YAM-3                   
1 48915U 21059AN  26162.83297363  .00010738  00000+0  20414-3 0  9994
2 48915  97.6991 349.4393 0005491  28.6937 331.4613 15.48437127276164
